ONEWEB-0533             
1 55141U 23004B   23255.91667824  .00000015  00000+0  00000+0 0  9999
2 55141  87.6280 191.3545 0003936  83.2680  72.7288 13.56600354  5513
ONEWEB-0541             
1 55142U 23004C   23255.84597881 -.00000228  00000+0 -67942-3 0  9997
2 55142  87.8926 221.3552 0001974  80.1246 280.0104 13.11410889 33783
ONEWEB-0543             
1 55143U 23004D   23255.91667824 -.00803575  00000+0 -17643+0 0  9996
2 55143  86.6768 183.3980 0005482  89.3252 260.9335 14.60574750  5632
ONEWEB-0544             
1 55144U 23004E   23255.91667824 -.00820942  00000+0 -17933+0 0  9996
2 55144  86.6761 183.3442 0003307  88.0611 233.4211 14.60880975  5703
ONEWEB-0560             
1 55145U 23004F   23255.91667824 -.00767077  00000+0 -16315+0 0  9999
2 55145  86.6689 183.3775 0003690  68.2640 294.9131 14.61895601  5716
ONEWEB-0565             
1 55146U 23004G   23255.91667824 -.00837529  00000+0 -18738+0 0  9991
2 55146  86.6848 183.2940 0003947  83.9421  29.6850 14.59849961  5708
ONEWEB-0567             
1 55147U 23004H   23255.91667824 -.00873476  00000+0 -19605+0 0  9997
2 55147  86.6812 183.2981 0006333  96.4979 344.3685 14.59816977  5708
ONEWEB-0569             
1 55148U 23004J   23255.81030624  .00001971  00000+0  35458-3 0  9998
2 55148  86.5392 182.2219 0004709 105.1107 255.0628 14.66148685 36239
